[
    {
        "Altitude(m)": 611965.2356594764,
        "Argument of Periapsis(deg)": 0.0,
        "Eccentricity": 0.0,
        "Inclination(deg)": 60.0,
        "Latitude(deg)": 59.140314047381565,
        "Longitude(deg)": 108.96984139552613,
        "Mean Anomaly(deg)": 81.8182,
        "RAAN(deg)": 135.0,
        "Satellite Name": "Test1 599",
        "Satellite Number": 599,
        "Semi-Major Axis(m)": 6980739.136638005,
        "Time(s)": 0
    },
    {
        "Altitude(m)": 611995.8609275733,
        "Argument of Periapsis(deg)": 0.00010418945913296404,
        "Eccentricity": 0.0,
        "Inclination(deg)": 60.0,
        "Latitude(deg)": 59.28341372054077,
        "Longitude(deg)": 110.10320876357898,
        "Mean Anomaly(deg)": 82.43830614546184,
        "RAAN(deg)": 134.99957995086024,
        "Satellite Name": "Test1 599",
        "Satellite Number": 599,
        "Semi-Major Axis(m)": 6980739.136638005,
        "Time(s)": 10
    },
    {
        "Altitude(m)": 612024.145301376,
        "Argument of Periapsis(deg)": 0.0002083789182659281,
        "Eccentricity": 0.0,
        "Inclination(deg)": 60.0,
        "Latitude(deg)": 59.41583128308324,
        "Longitude(deg)": 111.24609972323672,
        "Mean Anomaly(deg)": 83.05841229092367,
        "RAAN(deg)": 134.99915990172053,
        "Satellite Name": "Test1 599",
        "Satellite Number": 599,
        "Semi-Major Axis(m)": 6980739.136638005,
        "Time(s)": 20
    },
    {
        "Altitude(m)": 612050.0725621537,
        "Argument of Periapsis(deg)": 0.00031256837739889213,
        "Eccentricity": 0.0,
        "Inclination(deg)": 60.0,
        "Latitude(deg)": 59.53742730930917,
        "Longitude(deg)": 112.39788625718602,
        "Mean Anomaly(deg)": 83.67851843638549,
        "RAAN(deg)": 134.99873985258077,
        "Satellite Name": "Test1 599",
        "Satellite Number": 599,
        "Semi-Major Axis(m)": 6980739.136638005,
        "Time(s)": 30
    },
    {
        "Altitude(m)": 612073.6278514274,
        "Argument of Periapsis(deg)": 0.0004167578365318562,
        "Eccentricity": 0.0,
        "Inclination(deg)": 60.0,
        "Latitude(deg)": 59.648071629963844,
        "Longitude(deg)": 113.55790473202504,
        "Mean Anomaly(deg)": 84.29862458184732,
        "RAAN(deg)": 134.99831980344103,
        "Satellite Name": "Test1 599",
        "Satellite Number": 599,
        "Semi-Major Axis(m)": 6980739.136638005,
        "Time(s)": 40
    },
    {
        "Altitude(m)": 612094.7976779788,
        "Argument of Periapsis(deg)": 0.0005209472956648203,
        "Eccentricity": 0.0,
        "Inclination(deg)": 60.0,
        "Latitude(deg)": 59.74764398538987,
        "Longitude(deg)": 114.72545675725834,
        "Mean Anomaly(deg)": 84.91873072730917,
        "RAAN(deg)": 134.99789975430127,
        "Satellite Name": "Test1 599",
        "Satellite Number": 599,
        "Semi-Major Axis(m)": 6980739.136638005,
        "Time(s)": 50
    },
    {
        "Altitude(m)": 612113.5699242075,
        "Argument of Periapsis(deg)": 0.0006251367547977843,
        "Eccentricity": 0.0,
        "Inclination(deg)": 60.0,
        "Latitude(deg)": 59.83603464511438,
        "Longitude(deg)": 115.89981189010192,
        "Mean Anomaly(deg)": 85.538836872771,
        "RAAN(deg)": 134.99747970516157,
        "Satellite Name": "Test1 599",
        "Satellite Number": 599,
        "Semi-Major Axis(m)": 6980739.136638005,
        "Time(s)": 60
    },
    {
        "Altitude(m)": 612129.9338518396,
        "Argument of Periapsis(deg)": 0.0007293262139307483,
        "Eccentricity": 0.0,
        "Inclination(deg)": 60.0,
        "Latitude(deg)": 59.91314498680769,
        "Longitude(deg)": 117.08021066266579,
        "Mean Anomaly(deg)": 86.15894301823282,
        "RAAN(deg)": 134.9970596560218,
        "Satellite Name": "Test1 599",
        "Satellite Number": 599,
        "Semi-Major Axis(m)": 6980739.136638005,
        "Time(s)": 70
    },
    {
        "Altitude(m)": 612143.8801069871,
        "Argument of Periapsis(deg)": 0.0008335156730637124,
        "Eccentricity": 0.0,
        "Inclination(deg)": 60.0,
        "Latitude(deg)": 59.97888802778923,
        "Longitude(deg)": 118.26586640248296,
        "Mean Anomaly(deg)": 86.77904916369465,
        "RAAN(deg)": 134.99663960688207,
        "Satellite Name": "Test1 599",
        "Satellite Number": 599,
        "Semi-Major Axis(m)": 6980739.136638005,
        "Time(s)": 80
    },
    {
        "Altitude(m)": 612155.4007245622,
        "Argument of Periapsis(deg)": 0.0009377051321966765,
        "Eccentricity": 0.0,
        "Inclination(deg)": 60.0,
        "Latitude(deg)": 60.033188902613844,
        "Longitude(deg)": 119.45596885031257,
        "Mean Anomaly(deg)": 87.39915530915648,
        "RAAN(deg)": 134.9962195577423,
        "Satellite Name": "Test1 599",
        "Satellite Number": 599,
        "Semi-Major Axis(m)": 6980739.136638005,
        "Time(s)": 90
    },
    {
        "Altitude(m)": 612164.4891320122,
        "Argument of Periapsis(deg)": 0.0010418945913296407,
        "Eccentricity": 0.0,
        "Inclination(deg)": 60.0,
        "Latitude(deg)": 60.07598528077039,
        "Longitude(deg)": 120.6496880350416,
        "Mean Anomaly(deg)": 88.0192614546183,
        "RAAN(deg)": 134.9957995086026,
        "Satellite Name": "Test1 599",
        "Satellite Number": 599,
        "Semi-Major Axis(m)": 6980739.136638005,
        "Time(s)": 100
    },
    {
        "Altitude(m)": 612171.1401524254,
        "Argument of Periapsis(deg)": 0.0011460840504626045,
        "Eccentricity": 0.0,
        "Inclination(deg)": 60.0,
        "Latitude(deg)": 60.10722771915193,
        "Longitude(deg)": 121.84617686039678,
        "Mean Anomaly(deg)": 88.63936760008013,
        "RAAN(deg)": 134.9953794594628,
        "Satellite Name": "Test1 599",
        "Satellite Number": 599,
        "Semi-Major Axis(m)": 6980739.136638005,
        "Time(s)": 110
    },
    {
        "Altitude(m)": 612175.3500069653,
        "Argument of Periapsis(deg)": 0.0012502735095955685,
        "Eccentricity": 0.0,
        "Inclination(deg)": 60.0,
        "Latitude(deg)": 60.126879944700576,
        "Longitude(deg)": 123.04457539223657,
        "Mean Anomaly(deg)": 89.25947374554197,
        "RAAN(deg)": 134.99495941032308,
        "Satellite Name": "Test1 599",
        "Satellite Number": 599,
        "Semi-Major Axis(m)": 6980739.136638005,
        "Time(s)": 120
    },
    {
        "Altitude(m)": 612177.1163166385,
        "Argument of Periapsis(deg)": 0.0013544629687285324,
        "Eccentricity": 0.0,
        "Inclination(deg)": 60.0,
        "Latitude(deg)": 60.134919063486294,
        "Longitude(deg)": 124.24401529264347,
        "Mean Anomaly(deg)": 89.87957989100379,
        "RAAN(deg)": 134.99453936118334,
        "Satellite Name": "Test1 599",
        "Satellite Number": 599,
        "Semi-Major Axis(m)": 6980739.136638005,
        "Time(s)": 130
    },
    {
        "Altitude(m)": 612176.4381034244,
        "Argument of Periapsis(deg)": 0.0014586524278614966,
        "Eccentricity": 0.0,
        "Inclination(deg)": 60.0,
        "Latitude(deg)": 60.13133569342086,
        "Longitude(deg)": 125.44362284393148,
        "Mean Anomaly(deg)": 90.49968603646563,
        "RAAN(deg)": 134.9941193120436,
        "Satellite Name": "Test1 599",
        "Satellite Number": 599,
        "Semi-Major Axis(m)": 6980739.136638005,
        "Time(s)": 140
    },
    {
        "Altitude(m)": 612173.3157907234,
        "Argument of Periapsis(deg)": 0.0015628418869944607,
        "Eccentricity": 0.0,
        "Inclination(deg)": 60.0,
        "Latitude(deg)": 60.11613401881316,
        "Longitude(deg)": 126.64252354211101,
        "Mean Anomaly(deg)": 91.11979218192747,
        "RAAN(deg)": 134.99369926290385,
        "Satellite Name": "Test1 599",
        "Satellite Number": 599,
        "Semi-Major Axis(m)": 6980739.136638005,
        "Time(s)": 150
    },
    {
        "Altitude(m)": 612167.7512031548,
        "Argument of Periapsis(deg)": 0.0016670313461274247,
        "Eccentricity": 0.0,
        "Inclination(deg)": 60.0,
        "Latitude(deg)": 60.08933176602729,
        "Longitude(deg)": 127.83984669950027,
        "Mean Anomaly(deg)": 91.7398983273893,
        "RAAN(deg)": 134.9932792137641,
        "Satellite Name": "Test1 599",
        "Satellite Number": 599,
        "Semi-Major Axis(m)": 6980739.136638005,
        "Time(s)": 160
    },
    {
        "Altitude(m)": 612159.7475657004,
        "Argument of Periapsis(deg)": 0.0017712208052603888,
        "Eccentricity": 0.0,
        "Inclination(deg)": 60.0,
        "Latitude(deg)": 60.05096010057514,
        "Longitude(deg)": 129.0347284959737,
        "Mean Anomaly(deg)": 92.36000447285112,
        "RAAN(deg)": 134.99285916462438,
        "Satellite Name": "Test1 599",
        "Satellite Number": 599,
        "Semi-Major Axis(m)": 6980739.136638005,
        "Time(s)": 170
    },
    {
        "Altitude(m)": 612149.3095021782,
        "Argument of Periapsis(deg)": 0.001875410264393353,
        "Eccentricity": 0.0,
        "Inclination(deg)": 60.0,
        "Latitude(deg)": 60.001063447032635,
        "Longitude(deg)": 130.22631645780217,
        "Mean Anomaly(deg)": 92.98011061831295,
        "RAAN(deg)": 134.99243911548464,
        "Satellite Name": "Test1 599",
        "Satellite Number": 599,
        "Semi-Major Axis(m)": 6980739.136638005,
        "Time(s)": 180
    },
    {
        "Altitude(m)": 612136.4430330569,
        "Argument of Periapsis(deg)": 0.0019795997235263173,
        "Eccentricity": 0.0,
        "Inclination(deg)": 60.0,
        "Latitude(deg)": 59.93969923420138,
        "Longitude(deg)": 131.41377380624297,
        "Mean Anomaly(deg)": 93.60021676377477,
        "RAAN(deg)": 134.99201906634488,
        "Satellite Name": "Test1 599",
        "Satellite Number": 599,
        "Semi-Major Axis(m)": 6980739.136638005,
        "Time(s)": 190
    }
]